377P/Scotti,e,9.0302,225.9509,354.8740,6.694858,0.0568974,0.25138440,98.6972,04/09.0/2025,2000,g  9.5,4.0
# From MPEC 2025-A40
378P/McNaught,e,19.1594,93.7917,193.3165,6.287347,0.0625177,0.46360420,102.8415,04/09.0/2025,2000,g 12.0,4.0
# From MPC115889
379P/Spacewatch,e,12.4363,30.4524,184.6669,3.483809,0.1515732,0.35021882,311.5351,04/09.0/2025,2000,g 15.0,4.0
# From MPEC 2023-C45
380P/PANSTARRS,e,8.0315,127.7417,87.7503,4.441198,0.1053062,0.33426682,231.7959,04/09.0/2025,2000,g 12.5,4.0
# From MPEC 2021-J28
381P/LINEAR-Spacewatch,e,28.3396,173.3182,173.8504,7.145065,0.0516054,0.68060450,104.3822,04/09.0/2025,2000,g 17.5,2.0
# From MPC182891
382P/Larson,e,8.2659,170.3852,162.3086,5.893800,0.0688828,0.26613851,86.4328,04/09.0/2025,2000,g  8.0,4.0
# From MPEC 2022-OB6
383P/Christensen,e,12.3172,207.8550,133.7271,3.548908,0.1474219,0.59849466,293.7218,04/09.0/2025,2000,g 18.0,4.0
# From MPC182891
384P/Kowalski,e,7.2838,354.1885,37.7067,2.897695,0.1998136,0.61626668,40.3371,04/09.0/2025,2000,g 19.5,4.0
# From MPEC 2021-F20
385P/Hill,e,16.8227,357.0377,44.4594,4.289054,0.1109588,0.40189327,225.3203,04/09.0/2025,2000,g 13.0,4.0
# From MPEC 2021-L04
386P/PANSTARRS,e,15.2465,134.9157,353.1005,4.049164,0.1209640,0.41747914,204.7135,04/09.0/2025,2000,g 14.5,4.0
# From MPEC 2021-J28
387P/Boattini,e,8.9380,259.2386,162.8513,4.797407,0.0937981,0.73701304,191.2608,04/09.0/2025,2000,g 15.0,4.0
# From MPEC 2021-S45
388P/Gibbs,e,23.8796,37.0122,42.3644,5.240739,0.0821515,0.61937153,171.1464,04/09.0/2025,2000,g 13.0,4.0
# From MPEC 2022-OB6
389P/Siding Spring,e,160.0802,218.8548,249.3304,5.630331,0.0737740,0.70565952,142.0623,04/09.0/2025,2000,g 16.0,4.0
# From MPEC 2024-EF7
390P/Gibbs,e,18.5236,152.2048,232.5520,5.817566,0.0702412,0.70673270,129.4920,04/09.0/2025,2000,g 12.0,4.0
# From MPEC 2021-F20
391P/Kowalski,e,21.2570,124.7749,186.9618,4.691249,0.0969999,0.11839081,250.5387,04/09.0/2025,2000,g  8.0,4.0
# From MPEC 2021-J28
392P/LINEAR,e,4.9288,24.8079,71.9568,6.142216,0.0647465,0.68394027,118.6228,04/09.0/2025,2000,g 14.5,4.0
# From MPC182892
393P/Spacewatch-Hill,e,16.7840,36.4009,329.2136,4.800183,0.0937168,0.11916615,186.2471,04/09.0/2025,2000,g 11.0,4.0
# From MPEC 2020-KB7
394P/PANSTARRS,e,8.5282,98.1072,54.4406,4.326704,0.1095137,0.36831219,214.2221,04/09.0/2025,2000,g 16.0,2.4
# From MPC182892
395P/Catalina-NEAT,e,3.5709,220.9776,100.6522,7.202612,0.0509881,0.41172239,58.2936,04/09.0/2025,2000,g 10.0,4.0
# From MPEC 2020-KB7
396P/,e,5.4423,136.6084,8.3058,6.798777,0.0555978,0.41695489,113.9740,04/09.0/2025,2000,g 12.0,4.0
# From MPEC 2022-OB6
397P/Lemmon,e,10.9203,8.2109,14.5872,3.832124,0.1313847,0.40463235,230.4394,04/09.0/2025,2000,g 12.0,4.0
# From MPEC 2021-L04
398P/Boattini,e,11.0272,320.1350,127.5474,3.124535,0.1784538,0.58376236,278.8179,04/09.0/2025,2000,g 15.5,4.0
# From MPEC 2023-XP6
399P/PANSTARRS,e,13.3168,207.1187,214.4447,3.793562,0.1333931,0.44731587,188.9339,04/09.0/2025,2000,g 14.0,4.0
# From MPEC 2024-TD8
400P/PANSTARRS,e,10.9252,176.3506,238.9475,3.561973,0.1466115,0.40961920,222.4835,04/09.0/2025,2000,g 15.5,2.8
# From MPEC 2022-K19
401P/McNaught,e,12.8001,359.9248,309.3603,5.776951,0.0709833,0.57835950,138.6653,04/09.0/2025,2000,g 12.5,4.0
# From MPEC 2024-LE0
402P/LINEAR,e,30.8291,123.0466,326.9788,7.040228,0.0527623,0.44003463,63.8429,04/09.0/2025,2000,g  9.0,4.0
# From MPEC 2021-J28
403P/Catalina,e,12.3319,277.5615,163.9636,5.432437,0.0778416,0.50425787,129.5403,04/09.0/2025,2000,g 12.0,4.0
# From MPC182892
404P/Bressi,e,9.8043,260.0421,169.0445,4.719465,0.0961313,0.12434706,50.4452,04/09.0/2025,2000,g 10.0,4.0
# From MPEC 2021-L04
405P/Lemmon,e,9.3790,112.1932,3.3069,3.603918,0.1440594,0.69017680,225.5108,04/09.0/2025,2000,g 17.5,4.0
# From MPEC 2021-F20
406P/Gibbs,e,1.2099,352.3910,11.5603,3.579330,0.1455464,0.54108081,242.5662,04/09.0/2025,2000,g 17.0,4.0
# From MPEC 2022-YN2
407P/PANSTARRS-Fuls,e,4.8761,80.2422,93.1788,3.492102,0.1510336,0.37593344,288.6084,04/09.0/2025,2000,g 14.0,4.0
# From MPC182892
408P/Novichonok-Gerke,e,19.3523,189.4507,226.6841,4.745592,0.0953385,0.26846083,87.3241,04/09.0/2025,2000,g 11.0,4.0
# From MPEC 2022-ED3
409P/LONEOS-Hill,e,17.1473,143.6407,15.0416,6.032820,0.0665156,0.71019815,101.8628,04/09.0/2025,2000,g 14.0,4.0
# From MPEC 2022-M21
410P/NEAT-LINEAR,e,9.3881,139.9361,313.2612,6.653149,0.0574332,0.51173680,79.5037,04/09.0/2025,2000,g 12.5,4.0
# From MPEC 2021-J28
411P/Christensen,e,12.3895,77.6532,46.5572,5.811583,0.0703497,0.58176872,107.9460,04/09.0/2025,2000,g 13.5,4.0
# From MPEC 2021-F20
412P/WISE,e,8.9300,0.8442,155.8671,3.111242,0.1795988,0.47905214,285.1691,04/09.0/2025,2000,g 17.0,4.0
# From MPEC 2022-OB6
413P/Larson,e,15.9568,39.2323,186.4926,3.735919,0.1364922,0.41794796,186.0981,04/09.0/2025,2000,g 14.0,4.0
# From MPEC 2024-JU4
414P/STEREO,e,23.4074,257.8163,210.7084,2.792116,0.2112535,0.81226235,324.0173,04/09.0/2025,2000,g 19.0,4.0
# From MPEC 2022-J42
415P/Tenagra,e,31.8084,160.2584,345.8777,4.108301,0.1183616,0.19549341,179.2977,04/09.0/2025,2000,g 12.0,4.0
# From MPEC 2021-L04
416P/Scotti,e,3.3632,355.7352,134.4463,4.006553,0.1228988,0.45543987,185.8699,04/09.0/2025,2000,g 15.5,4.0
# From MPEC 2021-W31
417P/NEOWISE,e,9.8225,112.3094,126.3327,3.340532,0.1614286,0.55785239,237.0813,04/09.0/2025,2000,g 16.5,4.0
# From MPEC 2022-TA0
418P/LINEAR,e,5.7807,277.6238,307.3376,5.090528,0.0858143,0.66381688,109.0376,04/09.0/2025,2000,g 13.0,4.0
# From MPEC 2023-UR6
419P/PANSTARRS,e,2.7961,40.4156,187.8682,3.533048,0.1484157,0.27397835,187.3758,04/09.0/2025,2000,g 12.5,4.0
# From MPEC 2024-L77
420P/Hill,e,14.4956,173.5828,156.4167,5.484132,0.0767436,0.49512836,81.0809,04/09.0/2025,2000,g 11.5,4.0
# From MPEC 2021-W31
421P/McNaught,e,10.0759,55.3332,259.8658,5.075157,0.0862045,0.67438325,132.4262,04/09.0/2025,2000,g 14.0,4.0
# From MPEC 2024-N80
422P/Christensen,e,39.5807,36.0152,304.7701,6.275110,0.0627007,0.50577126,74.2420,04/09.0/2025,2000,g 11.0,4.0
# From MPEC 2023-FK0
423P/Lemmon,e,8.3430,33.3020,80.8706,6.181506,0.0641302,0.12277828,82.7943,04/09.0/2025,2000,g  8.0,4.0
# From MPEC 2022-CN4
424P/LaSagra,e,8.6819,51.2082,312.5597,4.420888,0.1060327,0.69043913,133.1777,04/09.0/2025,2000,g 17.0,4.0
# From MPEC 2024-C04
425P/Kowalski,e,16.4150,210.0852,200.9831,6.351171,0.0615777,0.54377841,79.8035,04/09.0/2025,2000,g 12.0,4.0
# From MPEC 2024-N80
426P/PANSTARRS,e,17.7841,280.3968,118.4069,3.185948,0.1733189,0.16106571,99.9325,04/09.0/2025,2000,g 13.5,4.0
# From MPEC 2023-J29
428P/Gibbs,e,8.5030,299.3124,36.8997,3.488367,0.1512763,0.51823794,215.8359,04/09.0/2025,2000,g 15.0,4.0
# From MPEC 2024-EF7
429P/LINEAR-Hill,e,7.5144,322.0182,75.7299,3.555696,0.1469999,0.49091542,175.3394,04/09.0/2025,2000,g 15.5,4.0
# From MPEC 2022-L66
430P/Scotti,e,4.4755,54.6501,94.4457,3.103340,0.1802852,0.50023250,220.5476,04/09.0/2025,2000,g 16.5,4.0
# From MPEC 2025-A40
431P/Scotti,e,22.3817,202.8397,199.9987,3.476889,0.1520260,0.47740475,174.8991,04/09.0/2025,2000,g 14.0,4.0
# From MPEC 2021-U31
432P/PANSTARRS,e,10.0680,239.1301,105.2826,3.038194,0.1861148,0.24087507,245.4583,04/09.0/2025,2000,g 17.0,4.0
# From MPEC 2024-D33
434P/Tenagra,e,6.3362,288.9150,128.4342,4.135687,0.1171878,0.27438370,147.6416,04/09.0/2025,2000,g 13.0,4.0
# From MPEC 2021-W31
435P/PANSTARRS,e,18.8744,98.5246,244.2176,3.021501,0.1876592,0.31759231,253.8502,04/09.0/2025,2000,g 17.0,4.0
# From MPEC 2022-X67
436P/Garradd,e,20.1993,87.1564,282.7601,5.936753,0.0681366,0.66913585,82.9962,04/09.0/2025,2000,g 14.5,4.0
# From MPEC 2023-B57
437P/Lemmon-PANSTARRS,e,3.6890,245.8403,207.0426,4.568571,0.1009331,0.25508176,97.1808,04/09.0/2025,2000,g 13.0,4.0
# From MPEC 2025-A40
438P/Christensen,e,8.2807,260.1088,58.9952,3.852409,0.1303483,0.41415831,238.8829,04/09.0/2025,2000,g 14.5,4.0
# From MPEC 2022-C56
439P/LINEAR,e,7.1124,56.4373,342.1054,3.491724,0.1510582,0.46915767,199.6379,04/09.0/2025,2000,g 13.5,4.0
# From MPEC 2024-N80
440P/Kobayashi,e,12.3495,328.8093,183.2969,8.578608,0.0392264,0.76081654,43.3721,04/09.0/2025,2000,g 15.5,4.0
# From MPEC 2022-X67
441P/PANSTARRS,e,2.5747,143.5917,178.8664,4.132406,0.1173274,0.19469343,342.0051,04/09.0/2025,2000,g 13.5,4.0
# From MPEC 2024-N80
442P/McNaught,e,6.0573,31.9637,310.6564,4.956188,0.0893269,0.53254044,86.2193,04/09.0/2025,2000,g 13.5,4.0
# From MPEC 2024-TD8
443P/PANSTARRS-Christensen,e,19.8878,108.9354,145.0803,4.124664,0.1176579,0.28300958,107.3551,04/09.0/2025,2000,g 13.5,4.0
# From MPEC 2023-VM5
444P/WISE-PANSTARRS,e,22.7337,88.1807,172.8633,3.469398,0.1525186,0.55934144,154.2755,04/09.0/2025,2000,g 17.0,4.0
# From MPEC 2024-BE0
445P/Lemmon-PANSTARRS,e,1.0887,126.5899,213.2380,4.046875,0.1210666,0.41406136,117.0366,04/09.0/2025,2000,g 15.0,4.0
# From MPEC 2024-NE4
446P/McNaught,e,16.6242,336.3488,344.6329,4.560913,0.1011874,0.64670875,105.8600,04/09.0/2025,2000,g 16.5,4.0
# From MPEC 2022-YB4
447P/Sheppard-Tholen,e,7.4407,302.6363,97.5726,5.627050,0.0738385,0.17741653,71.3304,04/09.0/2025,2000,g 12.0,4.0
# From MPEC 2024-PC5
448P/PANSTARRS,e,12.1456,161.7554,218.7989,3.636224,0.1421439,0.41823239,134.4343,04/09.0/2025,2000,g 16.0,4.0
# From MPEC 2024-DC6
449P/Leonard,e,15.4707,242.5228,176.7617,3.599870,0.1443025,0.47979828,230.2634,04/09.0/2025,2000,g 16.0,4.0
# From MPC182892
450P/LONEOS,e,10.6390,124.3927,22.9479,7.949232,0.0439761,0.31415427,331.0248,04/09.0/2025,2000,g  6.5,4.0
# From MPEC 2023-HD1
451P/Christensen,e,26.4839,300.8706,186.7819,6.349297,0.0616050,0.55920289,53.1704,04/09.0/2025,2000,g 15.5,4.0
# From MPEC 2024-NE4
452P/Sheppard-Jewitt,e,6.4218,123.6674,37.0865,7.309923,0.0498695,0.42847979,35.6121,04/09.0/2025,2000,g  9.0,4.0
# From MPEC 2023-RF3
453P/WISE-Lemmon,e,27.0615,42.8938,70.8905,5.466853,0.0771077,0.58312829,59.1934,04/09.0/2025,2000,g 14.0,4.0
# From MPEC 2023-CD7
454P/PANSTARRS,e,19.8104,54.5852,20.1833,4.211112,0.1140536,0.36147725,112.6109,04/09.0/2025,2000,g 14.0,4.0
# From MPEC 2022-Y14
455P/PANSTARRS,e,14.1352,146.1814,237.5344,3.153256,0.1760213,0.30450263,136.2406,04/09.0/2025,2000,g 17.0,4.0
